1 27424U 02022A   12078.24578836 -.00007826  00000-0 -17316-2 0  2477
2 27424 098.2258 020.0873 0001044 104.6121 255.5601 14.57044930525125